OCO 2                   
1 40059U 14035A   26115.82872007  .00000356  00000+0  88953-4 0  9990
2 40059  98.1988  57.9300 0001617  79.9148 280.2233 14.57144799628423
BRITE-PL2 (HEWELIUSZ)   
1 40119U 14049B   26115.81451039  .00001694  00000+0  16269-3 0  9995
2 40119  97.9036 227.4367 0012694 284.7952  75.1861 14.94395026633622
MMS 1                   
1 40482U 15011A   26115.91668980 -.00000713  00000+0  00000+0 0  9998
2 40482  71.4225 349.4850 8368033 166.3956   6.2732  0.28188796  1359
MMS 2                   
1 40483U 15011B   26115.91668980 -.00000713  00000+0  00000+0 0  9999
2 40483  71.4227 349.4871 8369091 166.4017   6.2574  0.28183039  1358
MMS 3                   
1 40484U 15011C   26115.91668980 -.00000713  00000+0  00000+0 0  9990
2 40484  71.4255 349.4917 8368322 166.3960   6.2595  0.28183068  1358
MMS 4                   
1 40485U 15011D   26115.91668980 -.00000713  00000+0  00000+0 0  9991
2 40485  71.4225 349.4871 8367895 166.4038   6.2469  0.28182568  1350
ASTROSAT                
1 40930U 15052A   26112.31982605  .00001425  00000+0  92060-4 0  9997
2 40930   5.9962 197.4550 0008405 315.1790  44.7659 14.82404932571525
DAMPE                   
1 41173U 15078A   26115.87157198  .00001043  00000+0  37809-4 0  9996
2 41173  97.4580 121.0851 0010219 261.8533  98.1549 15.30648729576548
PISAT                   
1 41784U 16059B   26115.55719233  .00000919  00000+0  16420-3 0  9999
2 41784  97.8190 118.2753 0029464  16.7333 343.4839 14.68884162512016
HXMT (HUIYAN)           
1 42758U 17034A   26115.83173501  .00003352  00000+0  17161-3 0  9995
2 42758  43.0133 114.4605 0031407 175.6730 184.4395 15.17990105489707
FLYING LAPTOP           
1 42831U 17042G   26115.85306230  .00002870  00000+0  22978-3 0  9991
2 42831  97.4455 273.4871 0018205 304.0734  55.8762 15.00808344478604
ZHANGHENG 1-01 (CSES-1) 
1 43194U 18015C   26115.83109656  .00008325  00000+0  38086-3 0  9994
2 43194  97.6829 280.4614 0017959  86.7206 273.6083 15.20650477456684
SALSAT                  
1 46495U 20068K   26115.73859803  .00008478  00000+0  30336-3 0  9996
2 46495  97.8866 115.6436 0011520 121.8273 238.4089 15.29000493307347
IXPE                    
1 49954U 21121A   26115.83334491  .00015366  00000+0  86709-3 0  9991
2 49954   0.2303 353.2713 0007333   9.1008  39.3158 15.09743510  5525
